{"type": "FeatureCollection", "features": [ {"type": "Feature", "properties": {"norad_id": 38137, "name": "FENGYUN 1C DEB", "group": "fengyun-1c-debris", "lat": 77.70236592937789, "lon": -25.878337090361267, "alt_km": 832.5162139394351, "timestamp": "2025-12-02T21:34:01.560640+00:00", "meta": {"OBJECT_NAME": "FENGYUN 1C DEB", "OBJECT_ID": "1999-025EQJ", "EPOCH": "2025-12-01T22:58:56.830944", "MEAN_MOTION": 14.06144852, "ECCENTRICITY": 0.00467475, "INCLINATION": 98.8664, "RA_OF_ASC_NODE": 18.9297, "ARG_OF_PERICENTER": 99.0728, "MEAN_ANOMALY": 261.5734, "EPHEMERIS_TYPE": 0, "CLASSIFICATION_TYPE": "U", "NORAD_CAT_ID": 38137, "ELEMENT_SET_NO": 999, "REV_AT_EPOCH": 63557, "BSTAR": 0.00025939815, "MEAN_MOTION_DOT": 3.88e-06, "MEAN_MOTION_DDOT": 0}, "tle": {"line1": "1 38137U 99025EQJ 25335.95760221  .00000388  00000+0  25940-3 0  9998", "line2": "2 38137  98.8664  18.9297 0046747  99.0728 261.5734 14.06144852635573"}}, "geometry": {"type": "Point", "coordinates": [-25.878337090361267, 77.70236592937789]}}, {"type": "Feature", "properties": {"norad_id": 38143, "name": "FENGYUN 1C DEB", "group": "fengyun-1c-debris", "lat": -71.8348187715449, "lon": -176.12888198605881, "alt_km": 844.2903015259317, "timestamp": "2025-12-02T21:34:01.560650+00:00", "meta": {"OBJECT_NAME": "FENGYUN 1C DEB", "OBJECT_ID": "1999-025EQQ", "EPOCH": "2025-11-30T10:14:32.518464", "MEAN_MOTION": 14.04858447, "ECCENTRICITY": 0.00553619, "INCLINATION": 99.0297, "RA_OF_ASC_NODE": 30.4011, "ARG_OF_PERICENTER": 255.2443, "MEAN_ANOMALY": 104.2585, "EPHEMERIS_TYPE": 0, "CLASSIFICATION_TYPE": "U", "NORAD_CAT_ID": 38143, "ELEMENT_SET_NO": 999, "REV_AT_EPOCH": 60110, "BSTAR": 0.00066489823, "MEAN_MOTION_DOT": 1.037e-05, "MEAN_MOTION_DDOT": 0}, "tle": {"line1": "1 38143U 99025EQQ 25334.42676526  .00001037  00000+0  66490-3 0  9997", "line2": "2 38143  99.0297  30.4011 0055361 255.2443 104.2585 14.04858447601109"}}, "geometry": {"type": "Point", "coordinates": [-176.12888198605881, -71.8348187715449]}}, {"type": "Feature", "properties": {"norad_id": 38144, "name": "FENGYUN 1C DEB", "group": "fengyun-1c-debris", "lat": 71.19207075388114, "lon": 134.55401610467968, "alt_km": 1204.0366142048751, "timestamp": "2025-12-02T21:34:01.560661+00:00", "meta": {"OBJECT_NAME": "FENGYUN 1C DEB", "OBJECT_ID": "1999-025EQR", "EPOCH": "2025-11-30T05:34:28.265376", "MEAN_MOTION": 13.58961896, "ECCENTRICITY": 0.02908675, "INCLINATION": 98.9697, "RA_OF_ASC_NODE": 159.7393, "ARG_OF_PERICENTER": 223.9628, "MEAN_ANOMALY": 133.8043, "EPHEMERIS_TYPE": 0, "CLASSIFICATION_TYPE": "U", "NORAD_CAT_ID": 38144, "ELEMENT_SET_NO": 999, "REV_AT_EPOCH": 60867, "BSTAR": 0.0017584648, "MEAN_MOTION_DOT": 1.663e-05, "MEAN_MOTION_DDOT": 0}, "tle": {"line1": "1 38144U 99025EQR 25334.23227159  .00001663  00000+0  17585-2 0  9996", "line2": "2 38144  98.9697 159.7393 0290867 223.9628 133.8043 13.58961896608676"}}, "geometry": {"type": "Point", "coordinates": [134.55401610467968, 71.19207075388114]}}, {"type": "Feature", "properties": {"norad_id": 38146, "name": "FENGYUN 1C DEB", "group": "fengyun-1c-debris", "lat": 52.56262882190404, "lon": 43.40335777880877, "alt_km": 660.685812817932, "timestamp": "2025-12-02T21:34:01.560671+00:00", "meta": {"OBJECT_NAME": "FENGYUN 1C DEB", "OBJECT_ID": "1999-025EQT", "EPOCH": "2025-12-02T11:31:34.921056", "MEAN_MOTION": 14.59014796, "ECCENTRICITY": 0.0202932, "INCLINATION": 99.4842, "RA_OF_ASC_NODE": 55.5381, "ARG_OF_PERICENTER": 133.7287, "MEAN_ANOMALY": 246.0363, "EPHEMERIS_TYPE": 0, "CLASSIFICATION_TYPE": "U", "NORAD_CAT_ID": 38146, "ELEMENT_SET_NO": 999, "REV_AT_EPOCH": 31730, "BSTAR": 0.0013768, "MEAN_MOTION_DOT": 8.56e-05, "MEAN_MOTION_DDOT": 0}, "tle": {"line1": "1 38146U 99025EQT 25336.48026529  .00008560  00000+0  13768-2 0  9997", "line2": "2 38146  99.4842  55.5381 0202932 133.7287 246.0363 14.59014796317300"}}, "geometry": {"type": "Point", "coordinates": [43.40335777880877, 52.56262882190404]}}, {"type": "Feature", "properties": {"norad_id": 38147, "name": "FENGYUN 1C DEB", "group": "fengyun-1c-debris", "lat": 46.42623849711951, "lon": -17.718964873008467, "alt_km": 802.5661046595169, "timestamp": "2025-12-02T21:34:01.560681+00:00", "meta": {"OBJECT_NAME": "FENGYUN 1C DEB", "OBJECT_ID": "1999-025EQU", "EPOCH": "2025-11-29T07:18:26.920800", "MEAN_MOTION": 14.23385127, "ECCENTRICITY": 0.0050737, "INCLINATION": 98.5592, "RA_OF_ASC_NODE": 347.8933, "ARG_OF_PERICENTER": 338.7731, "MEAN_ANOMALY": 21.1342, "EPHEMERIS_TYPE": 0, "CLASSIFICATION_TYPE": "U", "NORAD_CAT_ID": 38147, "ELEMENT_SET_NO": 999, "REV_AT_EPOCH": 60196, "BSTAR": 0.00059773367, "MEAN_MOTION_DOT": 1.331e-05, "MEAN_MOTION_DDOT": 0}, "tle": {"line1": "1 38147U 99025EQU 25333.30447825  .00001331  00000+0  59773-3 0  9998", "line2": "2 38147  98.5592 347.8933 0050737 338.7731  21.1342 14.23385127601965"}}, "geometry": {"type": "Point", "coordinates": [-17.718964873008467, 46.42623849711951]}}, {"type": "Feature", "properties": {"norad_id": 38149, "name": "FENGYUN 1C DEB", "group": "fengyun-1c-debris", "lat": 77.20061343527448, "lon": -170.0966300452265, "alt_km": 798.1928971484886, "timestamp": "2025-12-02T21:34:01.560691+00:00", "meta": {"OBJECT_NAME": "FENGYUN 1C DEB", "OBJECT_ID": "1999-025EQW", "EPOCH": "2025-12-02T05:56:21.153984", "MEAN_MOTION": 14.25900864, "ECCENTRICITY": 0.0077386, "INCLINATION": 98.3564, "RA_OF_ASC_NODE": 328.9678, "ARG_OF_PERICENTER": 192.0658, "MEAN_ANOMALY": 167.8671, "EPHEMERIS_TYPE": 0, "CLASSIFICATION_TYPE": "U", "NORAD_CAT_ID": 38149, "ELEMENT_SET_NO": 999, "REV_AT_EPOCH": 70338, "BSTAR": 0.0002822, "MEAN_MOTION_DOT": 6.52e-06, "MEAN_MOTION_DDOT": 0}, "tle": {"line1": "1 38149U 99025EQW 25336.24746706  .00000652  00000+0  28220-3 0  9994", "line2": "2 38149  98.3564 328.9678 0077386 192.0658 167.8671 14.25900864703383"}}, "geometry": {"type": "Point", "coordinates": [-170.0966300452265, 77.20061343527448]}}, {"type": "Feature", "properties": {"norad_id": 38155, "name": "FENGYUN 1C DEB", "group": "fengyun-1c-debris", "lat": 68.79101177434585, "lon": -140.89638731367702, "alt_km": 797.4663965179434, "timestamp": "2025-12-02T21:34:01.560701+00:00", "meta": {"OBJECT_NAME": "FENGYUN 1C DEB", "OBJECT_ID": "1999-025ERC", "EPOCH": "2025-11-23T23:11:37.353120", "MEAN_MOTION": 14.24801471, "ECCENTRICITY": 0.00959279, "INCLINATION": 98.4446, "RA_OF_ASC_NODE": 233.0188, "ARG_OF_PERICENTER": 183.3275, "MEAN_ANOMALY": 176.7278, "EPHEMERIS_TYPE": 0, "CLASSIFICATION_TYPE": "U", "NORAD_CAT_ID": 38155, "ELEMENT_SET_NO": 999, "REV_AT_EPOCH": 63508, "BSTAR": 0.0025040606, "MEAN_MOTION_DOT": 6.088e-05, "MEAN_MOTION_DDOT": 0}, "tle": {"line1": "1 38155U 99025ERC 25327.96640455  .00006088  00000+0  25041-2 0  9990", "line2": "2 38155  98.4446 233.0188 0095927 183.3275 176.7278 14.24801471635087"}}, "geometry": {"type": "Point", "coordinates": [-140.89638731367702, 68.79101177434585]}}, {"type": "Feature", "properties": {"norad_id": 38157, "name": "FENGYUN 1C DEB", "group": "fengyun-1c-debris", "lat": -58.81922250996179, "lon": 46.58377570378149, "alt_km": 849.44272255129, "timestamp": "2025-12-02T21:34:01.560711+00:00", "meta": {"OBJECT_NAME": "FENGYUN 1C DEB", "OBJECT_ID": "1999-025ERE", "EPOCH": "2025-11-30T11:02:04.700832", "MEAN_MOTION": 14.2166879, "ECCENTRICITY": 0.02738267, "INCLINATION": 99.6556, "RA_OF_ASC_NODE": 240.2532, "ARG_OF_PERICENTER": 148.8202, "MEAN_ANOMALY": 212.9547, "EPHEMERIS_TYPE": 0, "CLASSIFICATION_TYPE": "U", "NORAD_CAT_ID": 38157, "ELEMENT_SET_NO": 999, "REV_AT_EPOCH": 76073, "BSTAR": 0.00056081552, "MEAN_MOTION_DOT": 1.746e-05, "MEAN_MOTION_DDOT": 0}, "tle": {"line1": "1 38157U 99025ERE 25334.45977663  .00001746  00000+0  56082-3 0  9994", "line2": "2 38157  99.6556 240.2532 0273826 148.8202 212.9547 14.21668790760734"}}, "geometry": {"type": "Point", "coordinates": [46.58377570378149, -58.81922250996179]}}, {"type": "Feature", "properties": {"norad_id": 38159, "name": "FENGYUN 1C DEB", "group": "fengyun-1c-debris", "lat": -49.74909361442965, "lon": 37.14006855196368, "alt_km": 919.143045284075, "timestamp": "2025-12-02T21:34:01.560721+00:00", "meta": {"OBJECT_NAME": "FENGYUN 1C DEB", "OBJECT_ID": "1999-025ERG", "EPOCH": "2025-11-26T10:28:43.302720", "MEAN_MOTION": 14.03426914, "ECCENTRICITY": 0.00573234, "INCLINATION": 99.3154, "RA_OF_ASC_NODE": 221.7049, "ARG_OF_PERICENTER": 25.5121, "MEAN_ANOMALY": 334.8854, "EPHEMERIS_TYPE": 0, "CLASSIFICATION_TYPE": "U", "NORAD_CAT_ID": 38159, "ELEMENT_SET_NO": 999, "REV_AT_EPOCH": 82883, "BSTAR": 0.00052980182, "MEAN_MOTION_DOT": 7.94e-06, "MEAN_MOTION_DDOT": 0}, "tle": {"line1": "1 38159U 99025ERG 25330.43661230  .00000794  00000+0  52980-3 0  9995", "line2": "2 38159  99.3154 221.7049 0057323  25.5121 334.8854 14.03426914828838"}}, "geometry": {"type": "Point", "coordinates": [37.14006855196368, -49.74909361442965]}}, {"type": "Feature", "properties": {"norad_id": 38163, "name": "FENGYUN 1C DEB", "group": "fengyun-1c-debris", "lat": 64.27779303251694, "lon": -6.144318740624159, "alt_km": 917.2357023354125, "timestamp": "2025-12-02T21:34:01.560731+00:00", "meta": {"OBJECT_NAME": "FENGYUN 1C DEB", "OBJECT_ID": "1999-025ERL", "EPOCH": "2025-12-02T07:35:17.157984", "MEAN_MOTION": 14.05873796, "ECCENTRICITY": 0.0075539, "INCLINATION": 99.1292, "RA_OF_ASC_NODE": 12.7674, "ARG_OF_PERICENTER": 271.3738, "MEAN_ANOMALY": 87.8776, "EPHEMERIS_TYPE": 0, "CLASSIFICATION_TYPE": "U", "NORAD_CAT_ID": 38163, "ELEMENT_SET_NO": 999, "REV_AT_EPOCH": 24395, "BSTAR": 0.0011115, "MEAN_MOTION_DOT": 1.819e-05, "MEAN_MOTION_DDOT": 0}, "tle": {"line1": "1 38163U 99025ERL 25336.31617081  .00001819  00000+0  11115-2 0  9991", "line2": "2 38163  99.1292  12.7674 0075539 271.3738  87.8776 14.05873796243958"}}, "geometry": {"type": "Point", "coordinates": [-6.144318740624159, 64.27779303251694]}}]}